{
  "type": "FeatureCollection",
  "features": [
    {
      "type": "Feature",
      "properties": {
        "norad_id": 30144,
        "name": "FENGYUN 1C DEB",
        "group": "fengyun-1c-debris",
        "lat": 60.809205071726886,
        "lon": -171.90836431264873,
        "alt_km": 984.8989687937301,
        "timestamp": "2025-12-25T03:55:56.632120+00:00",
        "meta_object_name": "FENGYUN 1C DEB",
        "meta_object_id": "1999-025SZ",
        "meta_epoch": "2025-12-23T22:20:46.290048",
        "meta_mean_motion": 13.91833258,
        "meta_eccentricity": 0.01256,
        "meta_inclination": 99.0105,
        "meta_ra_of_asc_node": 350.3939,
        "meta_arg_of_pericenter": 260.1324,
        "meta_mean_anomaly": 165.1471,
        "meta_ephemeris_type": 0,
        "meta_classification_type": "U",
        "meta_norad_cat_id": 30144,
        "meta_element_set_no": 999,
        "meta_rev_at_epoch": 95996,
        "meta_bstar": 0.00049464,
        "meta_mean_motion_dot": 6.28e-06,
        "meta_mean_motion_ddot": 0,
        "tle_line1": "1 30144U 99025SZ  25357.93109132  .00000628  00000+0  49464-3 0  9992",
        "tle_line2": "2 30144  99.0105 350.3939 0125600 260.1324 165.1471 13.91833258959968"
      },
      "geometry": {
        "type": "Point",
        "coordinates": [
          -171.90836431264873,
          60.809205071726886
        ]
      }
    },
    {
      "type": "Feature",
      "properties": {
        "norad_id": 30145,
        "name": "FENGYUN 1C DEB",
        "group": "fengyun-1c-debris",
        "lat": 69.41697348372523,
        "lon": -45.01799938001477,
        "alt_km": 773.9191571538313,
        "timestamp": "2025-12-25T03:55:56.632132+00:00",
        "meta_object_name": "FENGYUN 1C DEB",
        "meta_object_id": "1999-025TA",
        "meta_epoch": "2025-12-24T19:38:35.229984",
        "meta_mean_motion": 14.14148706,
        "meta_eccentricity": 0.0089765,
        "meta_inclination": 99.2694,
        "meta_ra_of_asc_node": 108.8466,
        "meta_arg_of_pericenter": 115.4552,
        "meta_mean_anomaly": 35.701,
        "meta_ephemeris_type": 0,
        "meta_classification_type": "U",
        "meta_norad_cat_id": 30145,
        "meta_element_set_no": 999,
        "meta_rev_at_epoch": 96366,
        "meta_bstar": 0.0025793,
        "meta_mean_motion_dot": 5.064e-05,
        "meta_mean_motion_ddot": 0,
        "tle_line1": "1 30145U 99025TA  25358.81846331  .00005064  00000+0  25793-2 0  9997",
        "tle_line2": "2 30145  99.2694 108.8466 0089765 115.4552  35.7010 14.14148706963667"
      },
      "geometry": {
        "type": "Point",
        "coordinates": [
          -45.01799938001477,
          69.41697348372523
        ]
      }
    },
    {
      "type": "Feature",
      "properties": {
        "norad_id": 30146,
        "name": "FENGYUN 1C DEB",
        "group": "fengyun-1c-debris",
        "lat": -71.80446874623847,
        "lon": -177.5714511404813,
        "alt_km": 1072.0004948047917,
        "timestamp": "2025-12-25T03:55:56.632143+00:00",
        "meta_object_name": "FENGYUN 1C DEB",
        "meta_object_id": "1999-025TB",
        "meta_epoch": "2025-12-23T23:24:50.217408",
        "meta_mean_motion": 13.86616374,
        "meta_eccentricity": 0.0178676,
        "meta_inclination": 98.0204,
        "meta_ra_of_asc_node": 156.0084,
        "meta_arg_of_pericenter": 91.7759,
        "meta_mean_anomaly": 26.9605,
        "meta_ephemeris_type": 0,
        "meta_classification_type": "U",
        "meta_norad_cat_id": 30146,
        "meta_element_set_no": 999,
        "meta_rev_at_epoch": 95573,
        "meta_bstar": 0.00049979,
        "meta_mean_motion_dot": 6.26e-06,
        "meta_mean_motion_ddot": 0,
        "tle_line1": "1 30146U 99025TB  25357.97558122  .00000626  00000+0  49979-3 0  9994",
        "tle_line2": "2 30146  98.0204 156.0084 0178676  91.7759  26.9605 13.86616374955738"
      },
      "geometry": {
        "type": "Point",
        "coordinates": [
          -177.5714511404813,
          -71.80446874623847
        ]
      }
    },
    {
      "type": "Feature",
      "properties": {
        "norad_id": 30148,
        "name": "FENGYUN 1C DEB",
        "group": "fengyun-1c-debris",
        "lat": 36.4103053183639,
        "lon": 141.6323710336333,
        "alt_km": 989.2186823634693,
        "timestamp": "2025-12-25T03:55:56.632154+00:00",
        "meta_object_name": "FENGYUN 1C DEB",
        "meta_object_id": "1999-025TD",
        "meta_epoch": "2025-12-23T21:21:40.307040",
        "meta_mean_motion": 13.88509981,
        "meta_eccentricity": 0.0135019,
        "meta_inclination": 99.5459,
        "meta_ra_of_asc_node": 147.4582,
        "meta_arg_of_pericenter": 167.0982,
        "meta_mean_anomaly": 347.3695,
        "meta_ephemeris_type": 0,
        "meta_classification_type": "U",
        "meta_norad_cat_id": 30148,
        "meta_element_set_no": 999,
        "meta_rev_at_epoch": 95671,
        "meta_bstar": 0.00074278,
        "meta_mean_motion_dot": 9.13e-06,
        "meta_mean_motion_ddot": 0,
        "tle_line1": "1 30148U 99025TD  25357.89004985  .00000913  00000+0  74278-3 0  9999",
        "tle_line2": "2 30148  99.5459 147.4582 0135019 167.0982 347.3695 13.88509981956719"
      },
      "geometry": {
        "type": "Point",
        "coordinates": [
          141.6323710336333,
          36.4103053183639
        ]
      }
    },
    {
      "type": "Feature",
      "properties": {
        "norad_id": 30150,
        "name": "FENGYUN 1C DEB",
        "group": "fengyun-1c-debris",
        "lat": 80.97195867238005,
        "lon": 40.15815585425033,
        "alt_km": 1023.8458306811453,
        "timestamp": "2025-12-25T03:55:56.632164+00:00",
        "meta_object_name": "FENGYUN 1C DEB",
        "meta_object_id": "1999-025TF",
        "meta_epoch": "2025-12-24T07:01:24.184128",
        "meta_mean_motion": 13.86608469,
        "meta_eccentricity": 0.01463929,
        "meta_inclination": 98.9949,
        "meta_ra_of_asc_node": 133.8454,
        "meta_arg_of_pericenter": 304.7253,
        "meta_mean_anomaly": 118.5546,
        "meta_ephemeris_type": 0,
        "meta_classification_type": "U",
        "meta_norad_cat_id": 30150,
        "meta_element_set_no": 999,
        "meta_rev_at_epoch": 95618,
        "meta_bstar": 0.00053365346,
        "meta_mean_motion_dot": 6.31e-06,
        "meta_mean_motion_ddot": 0,
        "tle_line1": "1 30150U 99025TF  25358.29264102  .00000631  00000+0  53365-3 0  9997",
        "tle_line2": "2 30150  98.9949 133.8454 0146392 304.7253 118.5546 13.86608469956186"
      },
      "geometry": {
        "type": "Point",
        "coordinates": [
          40.15815585425033,
          80.97195867238005
        ]
      }
    },
    {
      "type": "Feature",
      "properties": {
        "norad_id": 30151,
        "name": "FENGYUN 1C DEB",
        "group": "fengyun-1c-debris",
        "lat": 24.28165629639402,
        "lon": -169.15877192212704,
        "alt_km": 945.2939733333351,
        "timestamp": "2025-12-25T03:55:56.632175+00:00",
        "meta_object_name": "FENGYUN 1C DEB",
        "meta_object_id": "1999-025TG",
        "meta_epoch": "2025-12-23T19:06:11.951424",
        "meta_mean_motion": 13.84486451,
        "meta_eccentricity": 0.01632341,
        "meta_inclination": 99.0629,
        "meta_ra_of_asc_node": 5.3915,
        "meta_arg_of_pericenter": 248.9472,
        "meta_mean_anomaly": 294.174,
        "meta_ephemeris_type": 0,
        "meta_classification_type": "U",
        "meta_norad_cat_id": 30151,
        "meta_element_set_no": 999,
        "meta_rev_at_epoch": 95398,
        "meta_bstar": 0.00044477497,
        "meta_mean_motion_dot": 5.09e-06,
        "meta_mean_motion_ddot": 0,
        "tle_line1": "1 30151U 99025TG  25357.79597166  .00000509  00000+0  44477-3 0  9999",
        "tle_line2": "2 30151  99.0629   5.3915 0163234 248.9472 294.1740 13.84486451953980"
      },
      "geometry": {
        "type": "Point",
        "coordinates": [
          -169.15877192212704,
          24.28165629639402
        ]
      }
    },
    {
      "type": "Feature",
      "properties": {
        "norad_id": 30152,
        "name": "FENGYUN 1C DEB",
        "group": "fengyun-1c-debris",
        "lat": 69.48845383984731,
        "lon": 62.06846526952852,
        "alt_km": 832.6918714609965,
        "timestamp": "2025-12-25T03:55:56.632199+00:00",
        "meta_object_name": "FENGYUN 1C DEB",
        "meta_object_id": "1999-025TH",
        "meta_epoch": "2025-12-24T13:40:33.934080",
        "meta_mean_motion": 13.96769351,
        "meta_eccentricity": 0.0162515,
        "meta_inclination": 99.0803,
        "meta_ra_of_asc_node": 216.1751,
        "meta_arg_of_pericenter": 52.8846,
        "meta_mean_anomaly": 308.7042,
        "meta_ephemeris_type": 0,
        "meta_classification_type": "U",
        "meta_norad_cat_id": 30152,
        "meta_element_set_no": 999,
        "meta_rev_at_epoch": 95543,
        "meta_bstar": 0.0021986,
        "meta_mean_motion_dot": 3.372e-05,
        "meta_mean_motion_ddot": 0,
        "tle_line1": "1 30152U 99025TH  25358.56983720  .00003372  00000+0  21986-2 0  9991",
        "tle_line2": "2 30152  99.0803 216.1751 0162515  52.8846 308.7042 13.96769351955438"
      },
      "geometry": {
        "type": "Point",
        "coordinates": [
          62.06846526952852,
          69.48845383984731
        ]
      }
    }
  ]
}